COSMOS 1933             
1 18958U 88020A   26008.33124456  .00004801  00000+0  23872-3 0  9990
2 18958  82.5147 310.6018 0006177  61.3512 298.8342 15.17394666 41074
SL-3 R/B                
1 19046U 88032B   26009.13554823  .00004862  00000+0  23267-3 0  9991
2 19046  97.5113 352.6759 0028456  82.1984 278.2479 15.19082512 43068
SL-16 R/B               
1 19120U 88039B   26008.59359536  .00000017  00000+0  30570-4 0  9998
2 19120  71.0133 195.6189 0019629  70.2330 290.0910 14.19604186949857
COSMOS 1953             
1 19210U 88050A   26006.86628059  .00006843  00000+0  25443-3 0  9993
2 19210  82.5067 220.3632 0011626 349.1631  10.9355 15.27279129 28349
SL-8 R/B                
1 19257U 88053B   26008.65485013  .00000260  00000+0  92860-4 0  9992
2 19257  74.0457 223.1149 0019141  57.1743 359.1879 14.38878829967965
COSMOS 1975             
1 19573U 88093A   26008.98139100  .00006722  00000+0  25249-3 0  9991
2 19573  82.5203 177.5479 0012199  25.8626 334.3220 15.26933191 10297
SL-14 R/B               
1 19574U 88093B   26008.72789670  .00000661  00000+0  73387-4 0  9990
2 19574  82.5316  98.3418 0019505 234.0587 242.3575 14.85586408992136
SL-16 R/B               
1 19650U 88102B   26009.14759458  .00000003  00000+0  25591-4 0  9998
2 19650  70.9996 276.7761 0011962 104.0112 256.2342 14.16141431918465
INTERCOSMOS 24          
1 20261U 89080A   26008.43649406  .00000549  00000+0  15255-3 0  9996
2 20261  82.6073 143.5989 1188977  72.6194 300.1217 12.59481943659211
SL-14 R/B               
1 20262U 89080C   26008.62590890  .00000322  00000+0  96118-4 0  9997
2 20262  82.5909 211.7570 1229979 322.1393  29.9038 12.50435739652645
DELTA 1 R/B             
1 20323U 89089B   26009.16233867  .00000393  00000+0  10623-3 0  9996
2 20323  97.0736 226.0524 0067983 311.6843  47.8549 14.50601052887109
ARIANE 40 R/B           
1 20443U 90005H   26009.18931978  .00000276  00000+0  10126-3 0  9997
2 20443  98.3201  71.5864 0010517  30.1793 330.0000 14.39822741884249
